start=new Date('2021-12-05T00:00:00.000Z').valueOf();
sats=[{"EPOCH":"2021-12-04T20:05:39.065280","DECAY_DATE":null,"EPHEMERIS_TYPE":"0","TIME_SYSTEM":"UTC","RCS_SIZE":"LARGE","MEAN_ELEMENT_THEORY":"SGP4","BSTAR":"0.00002805200000","PERIAPSIS":"546.212","OBJECT_NAME":"STARLINK-1803","NORAD_CAT_ID":"46703","MEAN_ANOMALY":"286.9886","PERIOD":"95.592","OBJECT_ID":"2020-073AK","OBJECT_TYPE":"PAYLOAD","RA_OF_ASC_NODE":"26.1139","COUNTRY_CODE":"US","APOAPSIS":"548.246","MEAN_MOTION":"15.06394940","FILE":"3232651","SEMIMAJOR_AXIS":"6925.364","GP_ID":"191103461","LAUNCH_DATE":"2020-10-18","SITE":"AFETR","MEAN_MOTION_DOT":"0.00000136","ELEMENT_SET_NO":"999","TLE_LINE2":"2 46703  53.0552  26.1139 0001469  73.1264 286.9886 15.06394940 62621","REV_AT_EPOCH":"6262","CLASSIFICATION_TYPE":"U","REF_FRAME":"TEME","CENTER_NAME":"EARTH","INCLINATION":"53.0552","ARG_OF_PERICENTER":"73.1264","MEAN_MOTION_DDOT":"0.0000000000000","TLE_LINE1":"1 46703U 20073AK  21338.83725770  .00000136  00000-0  28052-4 0  9999","ECCENTRICITY":"0.00014690"},{"REV_AT_EPOCH":"6291","TLE_LINE2":"2 46704  53.0575   5.8976 0001446   1.7964 358.3030 15.06387240 62911","CLASSIFICATION_TYPE":"U","REF_FRAME":"TEME","CENTER_NAME":"EARTH","INCLINATION":"53.0575","ARG_OF_PERICENTER":"1.7964","MEAN_MOTION_DDOT":"0.0000000000000","TLE_LINE1":"1 46704U 20073AL  21338.88333295 -.00000059  00000-0  14922-4 0  9998","ECCENTRICITY":"0.00014460","COUNTRY_CODE":"US","RA_OF_ASC_NODE":"5.8976","APOAPSIS":"548.254","FILE":"3232651","SEMIMAJOR_AXIS":"6925.388","MEAN_MOTION":"15.06387240","GP_ID":"191103712","LAUNCH_DATE":"2020-10-18","SITE":"AFETR","MEAN_MOTION_DOT":"-0.00000059","ELEMENT_SET_NO":"999","OBJECT_NAME":"STARLINK-1804","NORAD_CAT_ID":"46704","MEAN_ANOMALY":"358.3030","OBJECT_ID":"2020-073AL","PERIOD":"95.593","OBJECT_TYPE":"PAYLOAD","EPOCH":"2021-12-04T21:11:59.966880","DECAY_DATE":null,"EPHEMERIS_TYPE":"0","RCS_SIZE":"LARGE","TIME_SYSTEM":"UTC","MEAN_ELEMENT_THEORY":"SGP4","BSTAR":"0.00001492200000","PERIAPSIS":"546.251"},{"APOAPSIS":"548.388","COUNTRY_CODE":"US","RA_OF_ASC_NODE":"40.8361","ELEMENT_SET_NO":"999","MEAN_MOTION_DOT":"0.00000467","GP_ID":"191102460","SITE":"AFETR","LAUNCH_DATE":"2020-10-18","FILE":"3232651","SEMIMAJOR_AXIS":"6925.365","MEAN_MOTION":"15.06394612","INCLINATION":"53.0552","CENTER_NAME":"EARTH","REF_FRAME":"TEME","CLASSIFICATION_TYPE":"U","REV_AT_EPOCH":"6242","TLE_LINE2":"2 46705  53.0552  40.8361 0001672  59.5767 300.5387 15.06394612 62428","ECCENTRICITY":"0.00016720","TLE_LINE1":"1 46705U 20073AM  21338.89670111  .00000467  00000-0  50291-4 0  9992","MEAN_MOTION_DDOT":"0.0000000000000","ARG_OF_PERICENTER":"59.5767","MEAN_ELEMENT_THEORY":"SGP4","TIME_SYSTEM":"UTC","RCS_SIZE":"LARGE","EPHEMERIS_TYPE":"0","DECAY_DATE":null,"EPOCH":"2021-12-04T21:31:14.975904","PERIAPSIS":"546.072","BSTAR":"0.00005029100000","MEAN_ANOMALY":"300.5387","NORAD_CAT_ID":"46705","OBJECT_NAME":"STARLINK-1805","OBJECT_TYPE":"PAYLOAD","PERIOD":"95.592","OBJECT_ID":"2020-073AM"},{"ARG_OF_PERICENTER":"72.5544","TLE_LINE1":"1 46706U 20073AN  21338.87042071  .00000316  00000-0  40101-4 0  9991","MEAN_MOTION_DDOT":"0.0000000000000","ECCENTRICITY":"0.00013210","TLE_LINE2":"2 46706  53.0550  25.9536 0001321  72.5544 287.5589 15.06401751 62638","REV_AT_EPOCH":"6263","CLASSIFICATION_TYPE":"U","CENTER_NAME":"EARTH","REF_FRAME":"TEME","INCLINATION":"53.0550","SEMIMAJOR_AXIS":"6925.343","FILE":"3232651","MEAN_MOTION":"15.06401751","SITE":"AFETR","GP_ID":"191103210","LAUNCH_DATE":"2020-10-18","MEAN_MOTION_DOT":"0.00000316","ELEMENT_SET_NO":"999","RA_OF_ASC_NODE":"25.9536","COUNTRY_CODE":"US","APOAPSIS":"548.123","OBJECT_TYPE":"PAYLOAD","PERIOD":"95.592","OBJECT_ID":"2020-073AN","OBJECT_NAME":"STARLINK-1807","NORAD_CAT_ID":"46706","MEAN_ANOMALY":"287.5589","BSTAR":"0.00004010100000","PERIAPSIS":"546.293","EPOCH":"2021-12-04T20:53:24.349344","EPHEMERIS_TYPE":"0","DECAY_DATE":null,"RCS_SIZE":"LARGE","TIME_SYSTEM":"UTC","MEAN_ELEMENT_THEORY":"SGP4"},{"INCLINATION":"53.0549","REF_FRAME":"TEME","CENTER_NAME":"EARTH","CLASSIFICATION_TYPE":"U","TLE_LINE2":"2 46707  53.0549   6.3025 0002094 353.7352   6.3611 15.06396021 62908","REV_AT_EPOCH":"6290","ECCENTRICITY":"0.00020940","MEAN_MOTION_DDOT":"0.0000000000000","TLE_LINE1":"1 46707U 20073AP  21338.79487207  .00000466  00000-0  50189-4 0  9990","ARG_OF_PERICENTER":"353.7352","APOAPSIS":"548.676","COUNTRY_CODE":"US","RA_OF_ASC_NODE":"6.3025","ELEMENT_SET_NO":"999","MEAN_MOTION_DOT":"0.00000466","GP_ID":"191103961","SITE":"AFETR","LAUNCH_DATE":"2020-10-18","MEAN_MOTION":"15.06396021","FILE":"3232651","SEMIMAJOR_AXIS":"6925.361","MEAN_ANOMALY":"6.3611","NORAD_CAT_ID":"46707","OBJECT_NAME":"STARLINK-1808","PERIOD":"95.592","OBJECT_ID":"2020-073AP","OBJECT_TYPE":"PAYLOAD","MEAN_ELEMENT_THEORY":"SGP4","TIME_SYSTEM":"UTC","RCS_SIZE":"LARGE","DECAY_DATE":null,"EPHEMERIS_TYPE":"0","EPOCH":"2021-12-04T19:04:36.946848","PERIAPSIS":"545.776","BSTAR":"0.00005018900000"},{"NORAD_CAT_ID":"46708","OBJECT_NAME":"STARLINK-1809","MEAN_ANOMALY":"293.7899","OBJECT_ID":"2020-073AQ","PERIOD":"92.743","OBJECT_TYPE":"PAYLOAD","DECAY_DATE":null,"EPHEMERIS_TYPE":"0","EPOCH":"2021-12-04T07:52:48.570816","MEAN_ELEMENT_THEORY":"SGP4","RCS_SIZE":"LARGE","TIME_SYSTEM":"UTC","BSTAR":"0.00129970000000","PERIAPSIS":"406.294","CLASSIFICATION_TYPE":"U","REV_AT_EPOCH":"6310","TLE_LINE2":"2 46708  53.0552 349.2282 0003890  66.3518 293.7899 15.52670511 63106","INCLINATION":"53.0552","REF_FRAME":"TEME","CENTER_NAME":"EARTH","MEAN_MOTION_DDOT":"0.0000000000000","TLE_LINE1":"1 46708U 20073AQ  21338.32833994  .00081893  00000-0  12997-2 0  9994","ARG_OF_PERICENTER":"66.3518","ECCENTRICITY":"0.00038900","APOAPSIS":"411.575","COUNTRY_CODE":"US","RA_OF_ASC_NODE":"349.2282","GP_ID":"191104212","SITE":"AFETR","LAUNCH_DATE":"2020-10-18","SEMIMAJOR_AXIS":"6787.070","FILE":"3232651","MEAN_MOTION":"15.52670511","ELEMENT_SET_NO":"999","MEAN_MOTION_DOT":"0.00081893"},{"NORAD_CAT_ID":"46709","OBJECT_NAME":"STARLINK-1810","MEAN_ANOMALY":"287.1873","OBJECT_TYPE":"PAYLOAD","OBJECT_ID":"2020-073AR","PERIOD":"95.592","EPHEMERIS_TYPE":"0","DECAY_DATE":null,"EPOCH":"2021-12-04T14:14:38.153760","MEAN_ELEMENT_THEORY":"SGP4","RCS_SIZE":"LARGE","TIME_SYSTEM":"UTC","BSTAR":"0.00003970500000","PERIAPSIS":"546.161","CLASSIFICATION_TYPE":"U","REV_AT_EPOCH":"6237","TLE_LINE2":"2 46709  53.0579  42.1952 0001544  72.9285 287.1873 15.06394552 62371","INCLINATION":"53.0579","CENTER_NAME":"EARTH","REF_FRAME":"TEME","TLE_LINE1":"1 46709U 20073AR  21338.59349715  .00000310  00000-0  39705-4 0  9990","MEAN_MOTION_DDOT":"0.0000000000000","ARG_OF_PERICENTER":"72.9285","ECCENTRICITY":"0.00015440","APOAPSIS":"548.300","COUNTRY_CODE":"US","RA_OF_ASC_NODE":"42.1952","LAUNCH_DATE":"2020-10-18","GP_ID":"191102960","SITE":"AFETR","MEAN_MOTION":"15.06394552","FILE":"3232651","SEMIMAJOR_AXIS":"6925.365","ELEMENT_SET_NO":"999","MEAN_MOTION_DOT":"0.00000310"},{"GP_ID":"191102711","SITE":"AFETR","LAUNCH_DATE":"2020-10-18","FILE":"3232651","SEMIMAJOR_AXIS":"6925.350","MEAN_MOTION":"15.06399625","ELEMENT_SET_NO":"999","MEAN_MOTION_DOT":"0.00002611","APOAPSIS":"548.203","RA_OF_ASC_NODE":"40.8889","COUNTRY_CODE":"US","MEAN_MOTION_DDOT":"0.0000000000000","TLE_LINE1":"1 46710U 20073AS  21338.88933756  .00002611  00000-0  19409-3 0  9992","ARG_OF_PERICENTER":"71.3766","ECCENTRICITY":"0.00014270","CLASSIFICATION_TYPE":"U","TLE_LINE2":"2 46710  53.0545  40.8889 0001427  71.3766 288.7378 15.06399625 62426","REV_AT_EPOCH":"6242","INCLINATION":"53.0545","REF_FRAME":"TEME","CENTER_NAME":"EARTH","BSTAR":"0.00019409000000","PERIAPSIS":"546.226","DECAY_DATE":null,"EPHEMERIS_TYPE":"0","EPOCH":"2021-12-04T21:20:38.765184","MEAN_ELEMENT_THEORY":"SGP4","TIME_SYSTEM":"UTC","RCS_SIZE":"LARGE","OBJECT_ID":"2020-073AS","PERIOD":"95.592","OBJECT_TYPE":"PAYLOAD","NORAD_CAT_ID":"46710","OBJECT_NAME":"STARLINK-1811","MEAN_ANOMALY":"288.7378"},{"REF_FRAME":"TEME","CENTER_NAME":"EARTH","INCLINATION":"53.0559","REV_AT_EPOCH":"6263","TLE_LINE2":"2 46711  53.0559  26.0017 0001401  70.5110 289.6030 15.06399845 62639","CLASSIFICATION_TYPE":"U","ECCENTRICITY":"0.00014010","ARG_OF_PERICENTER":"70.5110","MEAN_MOTION_DDOT":"0.0000000000000","TLE_LINE1":"1 46711U 20073AT  21338.86306143  .00000847  00000-0  75782-4 0  9991","COUNTRY_CODE":"US","RA_OF_ASC_NODE":"26.0017","APOAPSIS":"548.184","MEAN_MOTION_DOT":"0.00000847","ELEMENT_SET_NO":"999","MEAN_MOTION":"15.06399845","FILE":"3232651","SEMIMAJOR_AXIS":"6925.349","GP_ID":"191103462","SITE":"AFETR","LAUNCH_DATE":"2020-10-18","MEAN_ANOMALY":"289.6030","OBJECT_NAME":"STARLINK-1813","NORAD_CAT_ID":"46711","PERIOD":"95.592","OBJECT_ID":"2020-073AT","OBJECT_TYPE":"PAYLOAD","TIME_SYSTEM":"UTC","RCS_SIZE":"LARGE","MEAN_ELEMENT_THEORY":"SGP4","EPOCH":"2021-12-04T20:42:48.507552","DECAY_DATE":null,"EPHEMERIS_TYPE":"0","PERIAPSIS":"546.244","BSTAR":"0.00007578200000"},{"ECCENTRICITY":"0.00015100","ARG_OF_PERICENTER":"67.6992","MEAN_MOTION_DDOT":"0.0000000000000","TLE_LINE1":"1 46712U 20073AU  21338.82894646  .00000762  00000-0  70039-4 0  9994","REF_FRAME":"TEME","CENTER_NAME":"EARTH","INCLINATION":"53.0542","TLE_LINE2":"2 46712  53.0542  26.1635 0001510  67.6992 292.4157 15.06395599 62628","REV_AT_EPOCH":"6262","CLASSIFICATION_TYPE":"U","MEAN_MOTION_DOT":"0.00000762","ELEMENT_SET_NO":"999","MEAN_MOTION":"15.06395599","FILE":"3232651","SEMIMAJOR_AXIS":"6925.362","GP_ID":"191103713","LAUNCH_DATE":"2020-10-18","SITE":"AFETR","COUNTRY_CODE":"US","RA_OF_ASC_NODE":"26.1635","APOAPSIS":"548.273","OBJECT_ID":"2020-073AU","PERIOD":"95.592","OBJECT_TYPE":"PAYLOAD","MEAN_ANOMALY":"292.4157","OBJECT_NAME":"STARLINK-1814","NORAD_CAT_ID":"46712","PERIAPSIS":"546.181","BSTAR":"0.00007003900000","RCS_SIZE":"LARGE","TIME_SYSTEM":"UTC","MEAN_ELEMENT_THEORY":"SGP4","EPOCH":"2021-12-04T19:53:40.974144","DECAY_DATE":null,"EPHEMERIS_TYPE":"0"}];
